{
  "type": "FeatureCollection",
  "features": [
    {
      "type": "Feature",
      "properties": {
        "norad_id": 38726,
        "name": "FENGYUN 1C DEB",
        "group": "fengyun-1c-debris",
        "lat": -8.471827564968617,
        "lon": 29.20027704633998,
        "alt_km": 554.2016136360953,
        "timestamp": "2025-12-27T03:58:44.440354+00:00",
        "meta_object_name": "FENGYUN 1C DEB",
        "meta_object_id": "1999-025ETT",
        "meta_epoch": "2025-12-26T20:02:26.983392",
        "meta_mean_motion": 15.05352651,
        "meta_eccentricity": 0.0022582,
        "meta_inclination": 99.134,
        "meta_ra_of_asc_node": 27.4361,
        "meta_arg_of_pericenter": 82.408,
        "meta_mean_anomaly": 277.9706,
        "meta_ephemeris_type": 0,
        "meta_classification_type": "U",
        "meta_norad_cat_id": 38726,
        "meta_element_set_no": 999,
        "meta_rev_at_epoch": 70067,
        "meta_bstar": 0.0060607,
        "meta_mean_motion_dot": 0.00088262,
        "meta_mean_motion_ddot": 0,
        "tle_line1": "1 38726U 99025ETT 25360.83503453  .00088262  00000+0  60607-2 0  9994",
        "tle_line2": "2 38726  99.1340  27.4361 0022582  82.4080 277.9706 15.05352651700679"
      },
      "geometry": {
        "type": "Point",
        "coordinates": [
          29.20027704633998,
          -8.471827564968617
        ]
      }
    },
    {
      "type": "Feature",
      "properties": {
        "norad_id": 38728,
        "name": "FENGYUN 1C DEB",
        "group": "fengyun-1c-debris",
        "lat": -30.944948140475425,
        "lon": -3.9296859014532575,
        "alt_km": 625.3087879369086,
        "timestamp": "2025-12-27T03:58:44.440363+00:00",
        "meta_object_name": "FENGYUN 1C DEB",
        "meta_object_id": "1999-025ETV",
        "meta_epoch": "2025-12-26T03:55:53.081184",
        "meta_mean_motion": 14.70806488,
        "meta_eccentricity": 0.00746168,
        "meta_inclination": 99.2616,
        "meta_ra_of_asc_node": 349.3183,
        "meta_arg_of_pericenter": 13.9217,
        "meta_mean_anomaly": 52.9999,
        "meta_ephemeris_type": 0,
        "meta_classification_type": "U",
        "meta_norad_cat_id": 38728,
        "meta_element_set_no": 999,
        "meta_rev_at_epoch": 65808,
        "meta_bstar": 0.0014609826,
        "meta_mean_motion_dot": 9.262e-05,
        "meta_mean_motion_ddot": 0,
        "tle_line1": "1 38728U 99025ETV 25360.16380881  .00009262  00000+0  14610-2 0  9996",
        "tle_line2": "2 38728  99.2616 349.3183 0074616  13.9217  52.9999 14.70806488658087"
      },
      "geometry": {
        "type": "Point",
        "coordinates": [
          -3.9296859014532575,
          -30.944948140475425
        ]
      }
    },
    {
      "type": "Feature",
      "properties": {
        "norad_id": 38789,
        "name": "FENGYUN 1C DEB",
        "group": "fengyun-1c-debris",
        "lat": 64.17907179156359,
        "lon": -130.91447888148736,
        "alt_km": 713.195844643642,
        "timestamp": "2025-12-27T03:58:44.440373+00:00",
        "meta_object_name": "FENGYUN 1C DEB",
        "meta_object_id": "1999-025EUD",
        "meta_epoch": "2025-12-16T11:04:27.892416",
        "meta_mean_motion": 14.45831603,
        "meta_eccentricity": 0.02075268,
        "meta_inclination": 98.8566,
        "meta_ra_of_asc_node": 236.7044,
        "meta_arg_of_pericenter": 14.1855,
        "meta_mean_anomaly": 164.1034,
        "meta_ephemeris_type": 0,
        "meta_classification_type": "U",
        "meta_norad_cat_id": 38789,
        "meta_element_set_no": 999,
        "meta_rev_at_epoch": 61899,
        "meta_bstar": 0.00050950207,
        "meta_mean_motion_dot": 2.303e-05,
        "meta_mean_motion_ddot": 0,
        "tle_line1": "1 38789U 99025EUD 25350.46143394  .00002303  00000+0  50950-3 0  9998",
        "tle_line2": "2 38789  98.8566 236.7044 0207526  14.1855 164.1034 14.45831603618998"
      },
      "geometry": {
        "type": "Point",
        "coordinates": [
          -130.91447888148736,
          64.17907179156359
        ]
      }
    },
    {
      "type": "Feature",
      "properties": {
        "norad_id": 38795,
        "name": "FENGYUN 1C DEB",
        "group": "fengyun-1c-debris",
        "lat": -53.92101463197463,
        "lon": 34.06401897939926,
        "alt_km": 1103.693115129402,
        "timestamp": "2025-12-27T03:58:44.440382+00:00",
        "meta_object_name": "FENGYUN 1C DEB",
        "meta_object_id": "1999-025EUK",
        "meta_epoch": "2025-12-26T08:24:09.300096",
        "meta_mean_motion": 13.29955469,
        "meta_eccentricity": 0.0503292,
        "meta_inclination": 98.7034,
        "meta_ra_of_asc_node": 21.2372,
        "meta_arg_of_pericenter": 221.9888,
        "meta_mean_anomaly": 134.1615,
        "meta_ephemeris_type": 0,
        "meta_classification_type": "U",
        "meta_norad_cat_id": 38795,
        "meta_element_set_no": 999,
        "meta_rev_at_epoch": 78693,
        "meta_bstar": 0.0021147,
        "meta_mean_motion_dot": 1.954e-05,
        "meta_mean_motion_ddot": 0,
        "tle_line1": "1 38795U 99025EUK 25360.35010764  .00001954  00000+0  21147-2 0  9994",
        "tle_line2": "2 38795  98.7034  21.2372 0503292 221.9888 134.1615 13.29955469786938"
      },
      "geometry": {
        "type": "Point",
        "coordinates": [
          34.06401897939926,
          -53.92101463197463
        ]
      }
    },
    {
      "type": "Feature",
      "properties": {
        "norad_id": 38797,
        "name": "FENGYUN 1C DEB",
        "group": "fengyun-1c-debris",
        "lat": -38.72930439075193,
        "lon": -98.67473300205639,
        "alt_km": 1165.3762148708292,
        "timestamp": "2025-12-27T03:58:44.440391+00:00",
        "meta_object_name": "FENGYUN 1C DEB",
        "meta_object_id": "1999-025EUM",
        "meta_epoch": "2025-12-26T10:32:41.326080",
        "meta_mean_motion": 13.61616863,
        "meta_eccentricity": 0.0245003,
        "meta_inclination": 99.4843,
        "meta_ra_of_asc_node": 252.9147,
        "meta_arg_of_pericenter": 186.2121,
        "meta_mean_anomaly": 173.5966,
        "meta_ephemeris_type": 0,
        "meta_classification_type": "U",
        "meta_norad_cat_id": 38797,
        "meta_element_set_no": 999,
        "meta_rev_at_epoch": 59469,
        "meta_bstar": 0.00027425,
        "meta_mean_motion_dot": 2.14e-06,
        "meta_mean_motion_ddot": 0,
        "tle_line1": "1 38797U 99025EUM 25360.43936720  .00000214  00000+0  27425-3 0  9998",
        "tle_line2": "2 38797  99.4843 252.9147 0245003 186.2121 173.5966 13.61616863594699"
      },
      "geometry": {
        "type": "Point",
        "coordinates": [
          -98.67473300205639,
          -38.72930439075193
        ]
      }
    },
    {
      "type": "Feature",
      "properties": {
        "norad_id": 38799,
        "name": "FENGYUN 1C DEB",
        "group": "fengyun-1c-debris",
        "lat": 12.363686666712562,
        "lon": -101.57762589243067,
        "alt_km": 817.1211768742178,
        "timestamp": "2025-12-27T03:58:44.440400+00:00",
        "meta_object_name": "FENGYUN 1C DEB",
        "meta_object_id": "1999-025EUP",
        "meta_epoch": "2025-12-23T11:21:05.361408",
        "meta_mean_motion": 14.48820928,
        "meta_eccentricity": 0.01632234,
        "meta_inclination": 98.4043,
        "meta_ra_of_asc_node": 72.8877,
        "meta_arg_of_pericenter": 317.4693,
        "meta_mean_anomaly": 41.395,
        "meta_ephemeris_type": 0,
        "meta_classification_type": "U",
        "meta_norad_cat_id": 38799,
        "meta_element_set_no": 999,
        "meta_rev_at_epoch": 64194,
        "meta_bstar": 0.00093364434,
        "meta_mean_motion_dot": 4.126e-05,
        "meta_mean_motion_ddot": 0,
        "tle_line1": "1 38799U 99025EUP 25357.47297872  .00004126  00000+0  93364-3 0  9999",
        "tle_line2": "2 38799  98.4043  72.8877 0163223 317.4693  41.3950 14.48820928641947"
      },
      "geometry": {
        "type": "Point",
        "coordinates": [
          -101.57762589243067,
          12.363686666712562
        ]
      }
    },
    {
      "type": "Feature",
      "properties": {
        "norad_id": 38801,
        "name": "FENGYUN 1C DEB",
        "group": "fengyun-1c-debris",
        "lat": -76.85378481383486,
        "lon": 90.24469679590588,
        "alt_km": 597.1696855738746,
        "timestamp": "2025-12-27T03:58:44.440409+00:00",
        "meta_object_name": "FENGYUN 1C DEB",
        "meta_object_id": "1999-025EUR",
        "meta_epoch": "2025-12-26T09:52:03.215712",
        "meta_mean_motion": 14.24870894,
        "meta_eccentricity": 0.0346269,
        "meta_inclination": 98.3719,
        "meta_ra_of_asc_node": 50.4355,
        "meta_arg_of_pericenter": 311.7065,
        "meta_mean_anomaly": 61.6244,
        "meta_ephemeris_type": 0,
        "meta_classification_type": "U",
        "meta_norad_cat_id": 38801,
        "meta_element_set_no": 999,
        "meta_rev_at_epoch": 64555,
        "meta_bstar": 0.00052893,
        "meta_mean_motion_dot": 2.26e-05,
        "meta_mean_motion_ddot": 0,
        "tle_line1": "1 38801U 99025EUR 25360.41114833  .00002260  00000+0  52893-3 0  9995",
        "tle_line2": "2 38801  98.3719  50.4355 0346269 311.7065  61.6244 14.24870894645559"
      },
      "geometry": {
        "type": "Point",
        "coordinates": [
          90.24469679590588,
          -76.85378481383486
        ]
      }
    }
  ]
}